{
  "type": "FeatureCollection",
  "name": "Niue AAL by hazard and asset contribution",
  "features": [
    {
      "type": "Feature",
      "geometry": null,
      "properties": {
        "hazard": "Tropical cyclone",
        "annual_average_loss_usd": 900000,
        "asset_contribution_percent": {
          "buildings": 88.8,
          "infrastructure": 8.9,
          "cash_crops": 2.2
        },
        "source": "https://www.gfdrr.org/sites/default/files/publication/PCRAFI%20AIR%20Brochure-%20Niue.pdf"
      }
    },
    {
      "type": "Feature",
      "geometry": null,
      "properties": {
        "hazard": "Earthquake and tsunami",
        "annual_average_loss_usd": 10000,
        "asset_contribution_percent": {
          "buildings": 65.6,
          "infrastructure": 34.4,
          "cash_crops": 0
        },
        "source": "https://www.gfdrr.org/sites/default/files/publication/PCRAFI%20AIR%20Brochure-%20Niue.pdf"
      }
    }
  ]
}
